{"type": "FeatureCollection", "attribution": "© OpenStreetMap contributors, ODbL", "license": "https://opendatacommons.org/licenses/odbl/1-0/", "source_license": "https://opendatacommons.org/licenses/odbl/1-0/", "features": [{"type": "Feature", "id": "bridge/318584357", "geometry": {"type": "LineString", "coordinates": [[15.9097858, 52.2593811], [15.908864, 52.2593855]]}, "properties": {"kind": "railway_bridge", "bridge_way_id": 318584357, "document_km": 21.5, "document_guess": "Obra", "confirmed_waterway_name": "Obra", "waterway_way_ids": "24769175", "bridge_tag": "yes", "bridge_layer": "1", "planar_intersections": 1, "status": "[PASS]", "source_url": "https://www.openstreetmap.org/way/318584357", "tags": {"bridge": "yes", "electrified": "no", "gauge": "1435", "layer": "1", "maxspeed": "70", "operator": "PKP Polskie Linie Kolejowe", "operator:short": "PKP PLK", "railway": "rail", "railway:shp": "yes", "railway:track_class": "C3", "railway:track_ref": "1", "ref": "359", "usage": "branch", "workrules": "PL:Ir-1"}}}, {"type": "Feature", "id": "bridge/801395051", "geometry": {"type": "LineString", "coordinates": [[15.0792952, 52.0340803], [15.0754432, 52.034655]]}, "properties": {"kind": "railway_bridge", "bridge_way_id": 801395051, "document_km": 96, "document_guess": "Bóbr", "confirmed_waterway_name": "Bóbr", "waterway_way_ids": "801855025", "bridge_tag": "yes", "bridge_layer": "1", "planar_intersections": 1, "status": "[PASS]", "source_url": "https://www.openstreetmap.org/way/801395051", "tags": {"bridge": "yes", "electrified": "no", "gauge": "1435", "layer": "1", "maxspeed": "100", "operator": "PKP Polskie Linie Kolejowe", "operator:short": "PKP PLK", "passenger_lines": "1", "railway": "rail", "railway:track_class": "C3", "railway:track_ref": "1", "ref": "358", "usage": "main", "workrules": "PL:Ir-1"}}}, {"type": "Feature", "id": "bridge/116512069", "geometry": {"type": "LineString", "coordinates": [[14.3427251, 51.752808], [14.3416887, 51.7525914]]}, "properties": {"kind": "railway_bridge", "bridge_way_id": 116512069, "document_km": 162, "document_guess": "Spree", "confirmed_waterway_name": "Spree", "waterway_way_ids": "117860615", "bridge_tag": "yes", "bridge_layer": "1", "planar_intersections": 1, "status": "[PASS]", "source_url": "https://www.openstreetmap.org/way/116512069", "tags": {"bridge": "yes", "electrified": "contact_line", "frequency": "16.7", "gauge": "1435", "layer": "1", "maxspeed": "120", "operator": "DB InfraGO AG", "railway": "rail", "railway:etcs": "no", "railway:gnt": "no", "railway:lzb": "no", "railway:pzb": "yes", "ref": "6345", "usage": "main", "voltage": "15000", "workrules": "DE:EBO"}}}, {"type": "Feature", "id": "bridge/33775391", "geometry": {"type": "LineString", "coordinates": [[13.3326413, 51.5881708], [13.3317505, 51.588103]]}, "properties": {"kind": "railway_bridge", "bridge_way_id": 33775391, "document_km": 236, "document_guess": "Schwarze Elster / Kleine Elster", "confirmed_waterway_name": "Schwarze Elster", "waterway_way_ids": "22990464", "bridge_tag": "yes", "bridge_layer": "1", "planar_intersections": 1, "status": "[PASS]", "source_url": "https://www.openstreetmap.org/way/33775391", "tags": {"bridge": "yes", "electrified": "contact_line", "frequency": "16.7", "gauge": "1435", "layer": "1", "maxspeed": "120", "maxspeed:source": "https://geovdbn.deutschebahn.com/isr", "operator": "DB InfraGO AG", "passenger_lines": "2", "railway": "rail", "railway:pzb": "yes", "ref": "6345", "usage": "main", "voltage": "15000"}}}, {"type": "Feature", "id": "waterway/22990464", "geometry": {"type": "LineString", "coordinates": [[13.3781731, 51.5339559], [13.3769135, 51.5345855], [13.374204, 51.5359668], [13.3739224, 51.5361307], [13.3734022, 51.5364421], [13.3730336, 51.5367074], [13.3724941, 51.5370948], [13.3713133, 51.5381027], [13.3697085, 51.539403], [13.3671905, 51.5414954], [13.366638, 51.5421951], [13.3663331, 51.5426574], [13.3658491, 51.5443809], [13.3657739, 51.5446253], [13.3655712, 51.5452843], [13.3654276, 51.5459373], [13.3654075, 51.5462573], [13.3654261, 51.5473425], [13.3655333, 51.5480297], [13.3658928, 51.5491272], [13.3662897, 51.5499745], [13.3663917, 51.5503848], [13.366507, 51.550916], [13.366574, 51.5513688], [13.3664628, 51.5519334], [13.36623, 51.5524889], [13.3659089, 51.5529166], [13.3647927, 51.554219], [13.3631107, 51.5561814], [13.3627081, 51.556738], [13.362357, 51.5572716], [13.3592273, 51.5622582], [13.3589962, 51.5626264], [13.3586927, 51.5630892], [13.3583279, 51.5635793], [13.3558098, 51.567887], [13.3557489, 51.5679941], [13.3556762, 51.568122], [13.3556076, 51.5684018], [13.3555917, 51.5689936], [13.3553931, 51.5695764], [13.3550819, 51.5698746], [13.3549394, 51.5700111], [13.3543647, 51.5703342], [13.3541546, 51.570455], [13.3536457, 51.5707812], [13.353187, 51.5711183], [13.3528117, 51.5715323], [13.3522242, 51.5721604], [13.3520881, 51.5722682], [13.3476063, 51.5758155], [13.3423451, 51.5800788], [13.3410433, 51.5811336], [13.3404557, 51.5814939], [13.3385636, 51.5825387], [13.3360165, 51.5840187], [13.334658, 51.5847594], [13.333788, 51.5854695], [13.3332887, 51.5858647], [13.3328824, 51.5862933], [13.332629, 51.5865776], [13.3323716, 51.5870746], [13.3321893, 51.5877266], [13.3321592, 51.5887053], [13.3318097, 51.5904566], [13.3316438, 51.5907479], [13.3311352, 51.5913477], [13.3302602, 51.5921079], [13.3292863, 51.5927535], [13.3283448, 51.5932216], [13.3268619, 51.5940719], [13.3255447, 51.5952184], [13.325158, 51.5957349], [13.3246127, 51.596699], [13.3242436, 51.5973357], [13.3233029, 51.5985506], [13.3230287, 51.5989721], [13.3216867, 51.6002304], [13.3209786, 51.6007825], [13.3202312, 51.601252], [13.3159583, 51.6037665], [13.315804, 51.6038562], [13.3123489, 51.6058646], [13.3120332, 51.6060125], [13.2917216, 51.6180107], [13.2908458, 51.6185086], [13.290216, 51.6189587], [13.2892472, 51.619774], [13.2882263, 51.6207236], [13.2878453, 51.6211724], [13.2873542, 51.6219051], [13.2768898, 51.6360056], [13.2747329, 51.6389191], [13.2728446, 51.6423281], [13.2727876, 51.6424803], [13.272331, 51.6436992], [13.271409, 51.6471663], [13.2713141, 51.647725], [13.2712614, 51.6495867], [13.2708827, 51.6530817], [13.2708675, 51.6532224], [13.270723, 51.653799], [13.2703949, 51.6546793], [13.2699219, 51.6557078], [13.2693371, 51.656837], [13.2659731, 51.6632418], [13.2656104, 51.6638994], [13.2644918, 51.6652784], [13.2638091, 51.6660323], [13.2629001, 51.6669316], [13.2626343, 51.6672021], [13.2614734, 51.6683284], [13.2604722, 51.6690392], [13.2537059, 51.6730819], [13.2530931, 51.6734905], [13.2526614, 51.6739053], [13.252146, 51.6744664], [13.2517533, 51.675094], [13.2514568, 51.6759286], [13.2513388, 51.6766773], [13.2513494, 51.6770044], [13.2513316, 51.6801573], [13.2512647, 51.6807934], [13.2510555, 51.6815405], [13.2498251, 51.6840242], [13.2490368, 51.6849672], [13.2485356, 51.6853887], [13.2479654, 51.6857855], [13.2463606, 51.6869224], [13.2459096, 51.6873403], [13.2456272, 51.6876734], [13.2445099, 51.6889915], [13.2441265, 51.6896055], [13.2438106, 51.690207], [13.2436574, 51.6905922], [13.2430037, 51.6924278], [13.2429658, 51.6926838], [13.2430542, 51.693018], [13.2432611, 51.6932416], [13.2436368, 51.6934391], [13.2442434, 51.6936875], [13.2450293, 51.69394], [13.2454002, 51.6940786], [13.2456266, 51.6942169], [13.2458582, 51.6944572], [13.2460433, 51.6948106], [13.2461063, 51.6952118], [13.246073, 51.6955055], [13.2460372, 51.695623], [13.245976, 51.695824], [13.2458313, 51.6961584], [13.2456283, 51.6963878], [13.2452279, 51.6966155], [13.2448401, 51.6967785], [13.2439425, 51.6969325], [13.2431941, 51.6970252], [13.242732, 51.6971644], [13.242562, 51.6973338], [13.2424404, 51.6976035], [13.2423698, 51.6979361], [13.2422106, 51.6994854], [13.2421484, 51.6996492], [13.2420242, 51.6998154], [13.2414844, 51.7000844], [13.2404618, 51.7004243], [13.2401918, 51.7005379], [13.2399137, 51.7008077], [13.2397914, 51.7010948], [13.239714, 51.7013991], [13.2392847, 51.7022564], [13.2386475, 51.7028105], [13.2376137, 51.7036052], [13.2372159, 51.7039821], [13.2364886, 51.7048218], [13.2359407, 51.7055026], [13.2354599, 51.7059874], [13.2339462, 51.707177]]}, "properties": {"kind": "crossed_waterway", "way_id": 22990464, "name": "Schwarze Elster", "source_url": "https://www.openstreetmap.org/way/22990464", "tags": {"boat": "yes", "name": "Schwarze Elster", "name:hsb": "Čorny Halštrow", "name:pl": "Czarna Elstera", "source": "Bing", "waterway": "river"}}}, {"type": "Feature", "id": "waterway/24769175", "geometry": {"type": "LineString", "coordinates": [[15.9191621, 52.2350552], [15.9201777, 52.2354575], [15.9206612, 52.2356778], [15.921391, 52.2359501], [15.9220062, 52.2360917], [15.922192, 52.2361069], [15.9224053, 52.2360823], [15.9229313, 52.2359891], [15.9234478, 52.2359518], [15.9239846, 52.2359696], [15.9242009, 52.2359767], [15.924755, 52.2359082], [15.9251058, 52.2358161], [15.9254776, 52.2357214], [15.9256786, 52.2356568], [15.9260321, 52.2356359], [15.9263457, 52.2356847], [15.9265364, 52.2357941], [15.9267505, 52.2358908], [15.9269462, 52.236033], [15.9270014, 52.2361526], [15.9269733, 52.2362718], [15.9266183, 52.237484], [15.926397, 52.2381743], [15.9263685, 52.2383908], [15.9262868, 52.2386265], [15.9262944, 52.2389285], [15.9266374, 52.2397994], [15.9267676, 52.2402831], [15.926766, 52.2409883], [15.9266764, 52.2412782], [15.9266764, 52.2414231], [15.9266764, 52.2416203], [15.9266935, 52.2419415], [15.9267962, 52.24213], [15.9267942, 52.2423159], [15.9266764, 52.2426712], [15.9263628, 52.2431285], [15.9261006, 52.2434288], [15.9260093, 52.2435894], [15.9259877, 52.2437488], [15.9258349, 52.2442728], [15.925808, 52.2446932], [15.9258832, 52.2449855], [15.9260226, 52.2452614], [15.9261618, 52.2455957], [15.9261576, 52.245883], [15.9260949, 52.246082], [15.9259274, 52.2462458], [15.9255589, 52.2465707], [15.9251197, 52.2468162], [15.92452, 52.2469919], [15.9242874, 52.2471257], [15.924145, 52.2472685], [15.9240334, 52.2475089], [15.9238751, 52.248592], [15.9235945, 52.2495173], [15.922731, 52.250847], [15.922218, 52.2516382], [15.9217938, 52.252061], [15.9212481, 52.252319], [15.9207283, 52.2524717], [15.9201546, 52.2524425], [15.9197514, 52.2522184], [15.919244, 52.2519675], [15.9187928, 52.2516505], [15.9183722, 52.2513102], [15.9174163, 52.2509726], [15.9168382, 52.251011], [15.9162331, 52.2512563], [15.9156053, 52.2516003], [15.9144098, 52.2525997], [15.9139096, 52.2532032], [15.9134932, 52.2534173], [15.9122563, 52.2539758], [15.9112794, 52.2544188], [15.9104323, 52.2548646], [15.9100729, 52.2554647], [15.9096858, 52.2562576], [15.9094749, 52.2575771], [15.9093882, 52.2591165], [15.9093494, 52.2594197], [15.9091823, 52.2597207], [15.9088897, 52.2599049], [15.9083774, 52.26033], [15.9078813, 52.2606365], [15.9072545, 52.2608603], [15.906105, 52.2610167], [15.9051301, 52.2611686], [15.9043871, 52.2612738], [15.9033345, 52.2615066], [15.9020419, 52.2619797], [15.9012964, 52.2623184]]}, "properties": {"kind": "crossed_waterway", "way_id": 24769175, "name": "Obra", "source_url": "https://www.openstreetmap.org/way/24769175", "tags": {"name": "Obra", "source": "Landsat", "waterway": "river"}}}, {"type": "Feature", "id": "waterway/117860615", "geometry": {"type": "LineString", "coordinates": [[14.3695668, 51.7108681], [14.3678935, 51.7116509], [14.3665096, 51.7124277], [14.3631221, 51.7136019], [14.360646, 51.715036], [14.359643, 51.7153139], [14.358693, 51.7154617], [14.3579094, 51.7156978], [14.3574298, 51.7159089], [14.3577233, 51.7166918], [14.3575508, 51.7175809], [14.3574217, 51.7181127], [14.3566051, 51.7210674], [14.3561545, 51.722325], [14.3560136, 51.7225814], [14.3555549, 51.7231253], [14.3551034, 51.7233898], [14.3545827, 51.7236357], [14.3539037, 51.7239141], [14.3534284, 51.7241361], [14.3526784, 51.7248174], [14.3515181, 51.7263981], [14.3514464, 51.7266071], [14.3513753, 51.727326], [14.3514623, 51.7277476], [14.3516187, 51.7279437], [14.3526561, 51.7292662], [14.3532162, 51.7310474], [14.3545405, 51.7319251], [14.355138, 51.7322171], [14.355423, 51.7324732], [14.3557067, 51.7327284], [14.3559258, 51.7334954], [14.3560331, 51.7337854], [14.3561204, 51.7340215], [14.3563256, 51.7343152], [14.3565443, 51.7346282], [14.3570298, 51.7351732], [14.3571721, 51.7356685], [14.3570107, 51.7365218], [14.3553382, 51.7386526], [14.3531374, 51.7398241], [14.3524324, 51.7401171], [14.3515421, 51.7403032], [14.3500955, 51.7406269], [14.3483288, 51.7405679], [14.3473338, 51.740639], [14.3471962, 51.7406718], [14.3464314, 51.7408543], [14.3455072, 51.7412159], [14.3444403, 51.7419857], [14.3439275, 51.7425452], [14.3438702, 51.7426587], [14.3438223, 51.7427536], [14.3436739, 51.7431623], [14.3436243, 51.7435424], [14.3438129, 51.7442272], [14.3440676, 51.745507], [14.345007, 51.7464765], [14.3451541, 51.746688], [14.3454114, 51.7470581], [14.3453946, 51.7474401], [14.3452163, 51.7480306], [14.3454769, 51.7486347], [14.3457418, 51.749097], [14.3458038, 51.7496649], [14.3453775, 51.7501908], [14.3451355, 51.7503404], [14.3447562, 51.7505692], [14.3434925, 51.7510858], [14.3429165, 51.7514938], [14.3421795, 51.7523648], [14.3420247, 51.7526764], [14.3419307, 51.7529996]]}, "properties": {"kind": "crossed_waterway", "way_id": 117860615, "name": "Spree", "source_url": "https://www.openstreetmap.org/way/117860615", "tags": {"name": "Spree", "name:hsb": "Sprjewja", "name:it": "Sprea", "name:pl": "Sprewa", "waterway": "river"}}}, {"type": "Feature", "id": "waterway/801855025", "geometry": {"type": "LineString", "coordinates": [[15.0754822, 52.0326062], [15.0760009, 52.0334054], [15.0766307, 52.0340461], [15.0772408, 52.0346081]]}, "properties": {"kind": "crossed_waterway", "way_id": 801855025, "name": "Bóbr", "source_url": "https://www.openstreetmap.org/way/801855025", "tags": {"name": "Bóbr", "name:pl": "Bóbr", "old_name": "Bober", "waterway": "river"}}}]}
