{"type": "FeatureCollection", "attribution": "© OpenStreetMap contributors, ODbL", "license": "https://opendatacommons.org/licenses/odbl/1-0/", "source_license": "https://opendatacommons.org/licenses/odbl/1-0/", "features": [{"type": "Feature", "id": "wolsztyn-leipzig", "geometry": {"type": "LineString", "coordinates": [[16.105876, 52.1138406], [16.1053054, 52.1144434], [16.0339762, 52.1801765], [16.0270644, 52.1853952], [16.0185387, 52.1943598], [15.9748964, 52.2342946], [15.9677736, 52.238744], [15.9291819, 52.2561612], [15.9232501, 52.2578786], [15.9169532, 52.2590062], [15.9031495, 52.2594967], [15.8998465, 52.2594591], [15.8940973, 52.2592319], [15.8830604, 52.2595148], [15.8811583, 52.2595129], [15.8463102, 52.2595415], [15.8458722, 52.2595432], [15.84273, 52.2592268], [15.8392097, 52.2581477], [15.8334393, 52.2535692], [15.8218957, 52.242214], [15.8215135, 52.2418962], [15.8211447, 52.2415897], [15.8207321, 52.2412467], [15.8204514, 52.2410133], [15.8201607, 52.2407529], [15.8138561, 52.2343783], [15.8136387, 52.2341969], [15.8133417, 52.2339506], [15.8084845, 52.2313063], [15.8043498, 52.2282805], [15.8026009, 52.2262538], [15.8010844, 52.2221526], [15.8022567, 52.2184917], [15.8183281, 52.1997953], [15.827229, 52.193242], [15.8285565, 52.1913012], [15.8291216, 52.1890767], [15.8288448, 52.1870591], [15.8277655, 52.1849637], [15.8107745, 52.1626047], [15.8074372, 52.1594813], [15.8045643, 52.1577705], [15.8011859, 52.156391], [15.7970731, 52.1553452], [15.7932987, 52.1548682], [15.7889056, 52.1548242], [15.7641617, 52.1563288], [15.7589292, 52.1558877], [15.7546322, 52.1544147], [15.7268911, 52.1390816], [15.7214129, 52.1369012], [15.715643, 52.1358501], [15.6747183, 52.1324348], [15.6677816, 52.1308604], [15.6641785, 52.1292685], [15.6612397, 52.1273283], [15.6289548, 52.0992836], [15.6212458, 52.0942883], [15.569819, 52.0633842], [15.5591769, 52.0551716], [15.5563017, 52.0535213], [15.5516204, 52.0520601], [15.530182, 52.0491549], [15.5248568, 52.047582], [15.5224048, 52.0462271], [15.5200117, 52.0442082], [15.5126115, 52.0352022], [15.5027125, 52.03026], [15.4674043, 52.0227455], [15.4521833, 52.0185388], [15.4396654, 52.0152932], [15.4198311, 52.0142367], [15.4159903, 52.0144274], [15.3436122, 52.0258596], [15.3293843, 52.0284287], [15.3255549, 52.029432], [15.3105355, 52.0352696], [15.2823154, 52.0391716], [15.2149124, 52.0395772], [15.1915625, 52.0408964], [15.187012, 52.0408658], [15.1677539, 52.038724], [15.1402437, 52.031137], [15.1183582, 52.0291932], [15.1085747, 52.0297037], [15.0730806, 52.0350007], [15.0662656, 52.0352171], [15.0615369, 52.0345826], [14.9730582, 52.0153327], [14.8699196, 52.0033637], [14.8630408, 52.0022841], [14.8531158, 51.9996079], [14.819056, 51.9866826], [14.8139872, 51.9853555], [14.8092301, 51.9848736], [14.7671206, 51.9838784], [14.7177689, 51.9779546], [14.7110421, 51.9758927], [14.7051741, 51.9725424], [14.7034964, 51.9700812], [14.70382, 51.9674638], [14.7042983, 51.9665797], [14.7092695, 51.9515962], [14.7093343, 51.951478], [14.7097197, 51.9506156], [14.7125191, 51.9461604], [14.7127639, 51.9440831], [14.7114446, 51.9413492], [14.7083038, 51.9391414], [14.6931707, 51.9344919], [14.6903496, 51.9336517], [14.6693043, 51.9270816], [14.6656757, 51.9246872], [14.6612893, 51.920011], [14.6569949, 51.9176552], [14.6383125, 51.9125179], [14.637233, 51.9121801], [14.6367096, 51.9120375], [14.6240878, 51.9082556], [14.6239196, 51.9081857], [14.5689265, 51.8855402], [14.462814, 51.8553616], [14.4593011, 51.8538778], [14.4555402, 51.8516154], [14.4531392, 51.8495666], [14.4508838, 51.8467516], [14.4440203, 51.8336383], [14.443531, 51.8328407], [14.4408945, 51.827958], [14.4382997, 51.8250313], [14.4335665, 51.8218138], [14.4288856, 51.81989], [14.4239084, 51.8186755], [14.4194574, 51.818151], [14.3912637, 51.817907], [14.386089, 51.8166604], [14.3816729, 51.8142302], [14.3789353, 51.8109953], [14.3763329, 51.8042756], [14.3653669, 51.7644274], [14.3640269, 51.7619272], [14.3599903, 51.7586692], [14.3532765, 51.7552365], [14.3351097, 51.7512905], [14.3322517, 51.7513868], [14.3311235, 51.7514662], [14.3299346, 51.751552], [14.328862, 51.7516201], [14.3281098, 51.7516387], [14.3248102, 51.7515573], [14.3226586, 51.7514753], [14.3215453, 51.7514334], [14.3196786, 51.751364], [14.3172645, 51.7512736], [14.3159441, 51.7511274], [14.3154572, 51.751109], [14.3137464, 51.7510459], [14.301061, 51.7507344], [14.3008703, 51.7507179], [14.2900037, 51.7492503], [14.2793972, 51.7488367], [14.2482046, 51.7476631], [14.2199399, 51.7443035], [14.1358286, 51.744488], [14.1344575, 51.7444322], [14.1196666, 51.744467], [14.0725173, 51.7445979], [14.0014681, 51.7435023], [13.9960067, 51.7432052], [13.9908029, 51.7422452], [13.9850289, 51.7402334], [13.9749045, 51.7361446], [13.9747472, 51.7360824], [13.9743592, 51.7359261], [13.9516782, 51.7267627], [13.9402599, 51.7196333], [13.9168643, 51.709273], [13.9100248, 51.7075328], [13.8964983, 51.7071064], [13.8889067, 51.7054615], [13.8477694, 51.6878561], [13.8132263, 51.6719697], [13.7990371, 51.6672038], [13.7986211, 51.6670752], [13.7386807, 51.6486011], [13.721231, 51.6415207], [13.7205513, 51.6412349], [13.7196596, 51.640909], [13.7075895, 51.6358507], [13.7072998, 51.6357298], [13.7019069, 51.6342423], [13.6580527, 51.6281691], [13.6489812, 51.6279695], [13.6192304, 51.6295319], [13.6125358, 51.6293592], [13.605804, 51.6286553], [13.6051797, 51.6285616], [13.5601498, 51.6198526], [13.5463721, 51.6171694], [13.5462585, 51.6171464], [13.5264189, 51.6131142], [13.5018045, 51.6050092], [13.4919812, 51.602831], [13.4855824, 51.6022527], [13.4531473, 51.6018458], [13.4456493, 51.6014191], [13.4447078, 51.6012788], [13.4291779, 51.5988997], [13.4284458, 51.5988167], [13.3883947, 51.5924187], [13.361316, 51.5903384], [13.2837869, 51.5844552], [13.2834725, 51.5844302], [13.2659, 51.5827724], [13.257256, 51.5824699], [13.249619, 51.5830419], [13.2323598, 51.5843087], [13.2315302, 51.5843671], [13.2307731, 51.584386], [13.214338, 51.5855169], [13.2093529, 51.5854469], [13.174757, 51.5817526], [13.054685, 51.5699694], [13.0132074, 51.5673403], [12.9997651, 51.5664437], [12.9951742, 51.5652027], [12.9874842, 51.5608896], [12.9517005, 51.5443594], [12.9413383, 51.5399688], [12.8281092, 51.5079871], [12.8149128, 51.5042716], [12.8055275, 51.5025038], [12.7636307, 51.4980001], [12.7586076, 51.4969546], [12.6538667, 51.4581826], [12.6534434, 51.4580246], [12.6450703, 51.4549084], [12.631161, 51.4497409], [12.630118, 51.4493537], [12.6282587, 51.4486626], [12.6282392, 51.4486556], [12.6260567, 51.4478643], [12.6166006, 51.4458781], [12.6075611, 51.4418955], [12.6030764, 51.4409266], [12.5984361, 51.4410347], [12.5900599, 51.4427803], [12.5863501, 51.4431474], [12.5756939, 51.4426646], [12.5722817, 51.442026], [12.5700181, 51.4410706], [12.5677095, 51.4393158], [12.5571833, 51.4260926], [12.5540786, 51.4237856], [12.5501342, 51.4217268], [12.5148356, 51.4087195], [12.5016581, 51.4006714], [12.498455, 51.3980978], [12.4962078, 51.394918], [12.4941492, 51.3860281], [12.4932267, 51.3840864], [12.4909952, 51.3819301], [12.4868448, 51.3799607], [12.4704288, 51.3734922], [12.4550668, 51.3675166], [12.4549141, 51.3674593], [12.4503805, 51.3659249], [12.4473012, 51.3659871], [12.4376244, 51.3700438], [12.4267595, 51.3723826], [12.4221296, 51.3729101], [12.4068025, 51.374304], [12.4037222, 51.3740874], [12.4012109, 51.3732288], [12.3996869, 51.3718217], [12.3993562, 51.3703325], [12.4001077, 51.3683665], [12.4004836, 51.367467], [12.4011384, 51.3655951], [12.4007501, 51.3636718], [12.3989785, 51.3611568], [12.3960963, 51.358707], [12.3902766, 51.3537201], [12.3900971, 51.3535531], [12.3896947, 51.3531762], [12.3862856, 51.3505353], [12.3861222, 51.3503292], [12.3853012, 51.3492697]]}, "properties": {"station_ids": ["wolsztyn", "zbaszynek", "cottbus", "leipzig"], "length_km": 311.875372, "chainage_m": [0.0, 77.577, 8861.20204, 9608.928546, 10763.097874, 16108.581459, 16801.609251, 20066.43253, 20513.179573, 20959.842843, 21901.167, 22126.242, 22518.977, 23271.483, 23400.942, 25772.738, 25802.549, 26020.363936, 26289.663253, 26935.871, 28424.268, 28468.154, 28510.487, 28557.857, 28590.088, 28625.169, 29454.582, 29479.603, 29513.649, 29957.526574, 30397.563567, 30653.216, 31121.303316, 31536.581494, 33888.828386, 34838.020912, 35072.282326, 35322.885829, 35548.266631, 35792.868902, 38538.75282, 38954.461539, 39227.875917, 39505.021212, 39809.065701, 40072.247264, 40372.312401, 42070.43979, 42431.138924, 42767.299074, 45317.561795, 45763.643115, 46174.856427, 48996.818993, 49502.16706, 49805.51397, 50100.427843, 53923.526883, 54689.75, 59608.953812, 60777.49801, 61046.643298, 61405.904036, 62908.262535, 63312.571009, 63538.176017, 63816.215639, 64939.187884, 65811.994994, 68370.191978, 69512.854, 70442.895008, 71806.066267, 72069.910497, 77185.811545, 78200.828652, 78485.728695, 79701.699006, 81681.203577, 86294.103988, 87898.734154, 88210.152732, 89549.423839, 91612.799933, 93126.356989, 93798.437087, 96298.288335, 96765.333799, 97096.58065, 103520.986464, 110708.376236, 111194.576468, 111936.713954, 114677.508467, 115054.883623, 115385.207515, 118272.611187, 121717.996611, 122232.904942, 122781.230508, 123078.212107, 123370.251, 123473.877, 125175.98, 125189.853, 125289.358, 125823.12864, 126055.820584, 126374.486073, 126702.566, 127862.245, 128077.04, 129696.714573, 130061.648321, 130663.2157, 131057.937519, 132462.894, 132545.922, 132585.169, 133548.84, 133562.752, 138099.845622, 146121.999859, 146414.330053, 146774.952497, 147056.236372, 147405.542, 148938.088, 149032.95, 149606.073422, 149977.655534, 150461.849961, 150848.71761, 151217.002136, 151528.868674, 153469.568983, 153851.82784, 154258.783436, 154665.284905, 155434.626557, 159935.27221, 160228.567252, 160685.709035, 161285.870321, 162612.891, 162810.404, 162888.567, 162970.963, 163045.198, 163097.019, 163324.41, 163472.802, 163549.581, 163678.313, 163844.799, 163937.136, 163970.716, 164088.694, 164963.499, 164976.754, 165742.775887, 166474.745, 168626.487784, 170608.304509, 176400.356, 176494.958, 177513.303, 180759.9048, 185653.723437, 186031.238634, 186405.138, 186862.302, 187694.738, 187707.59, 187739.464, 189605.699352, 190723.175317, 192705.719311, 193215.512643, 194149.401879, 194703.9476, 198151.722997, 201118.997693, 202232.571, 202264.627, 206881.910582, 208320.618, 208377.274, 208448.734, 209453.813, 209477.906, 209885.457653, 212988.728868, 213615.691992, 215677.89312, 216140.675072, 216612.182, 216656.516, 219912.496, 220909.409, 220917.659, 222359.579995, 224284.236572, 225004.885394, 225451.648594, 227693.144021, 228213.378, 228280.249, 229385.317, 229436.719, 232293.392224, 234178.365, 239574.478, 239596.378, 240826.18, 241424.690219, 241956.459, 243157.289, 243214.975, 243267.327, 244409.882851, 244754.421468, 247180.003526, 255581.076227, 258462.944, 259397.504, 259744.569494, 260462.655, 263545.143158, 264412.348739, 273016.324, 274018.778, 274697.605178, 277641.193345, 278007.903759, 286447.79, 286481.978, 287157.741, 288280.129, 288364.258, 288514.281, 288515.84, 288690.827, 289383.744454, 290152.48161, 290482.113442, 290804.601355, 291417.958247, 291678.814486, 292420.79529, 292668.212555, 292858.064433, 293110.913348, 294755.661337, 295091.210208, 295448.586, 298295.076716, 299575.723511, 299938.445361, 300325.305176, 301325.209966, 301550.661732, 301836.4159, 302198.658, 303546.091, 304802.755, 304815.123, 305174.156023, 305388.658259, 306200.147186, 307000.210612, 307327.835, 308406.195165, 308622.003768, 308821.35025, 309010.788018, 309178.466967, 309403.892, 309507.29, 309720.842664, 309936.902898, 310243.130811, 310581.938, 311268.26, 311290.625, 311340.996, 311718.915, 311744.488, 311875.372]}}]}
